0 DMSP 5D-2 F11 DEB
1 28302U 91082P   13280.97901141  .00000882  00000-0  47241-3 0  6582
2 28302 098.8216 271.7945 0031261 233.7521 188.1701 14.15447849488937
0 DMSP 5D-2 F11 DEB
1 28302U 91082P   13283.47076916  .00000928  00000-0  49570-3 0  6592
2 28302 098.8215 274.2599 0031373 226.4293 285.4447 14.15455201489286
0 DMSP 5D-2 F11 DEB
1 28302U 91082P   13285.51468968  .00000796  00000-0  42837-3 0  6605
2 28302 098.8214 276.2823 0031447 220.4585 260.6728 14.15459625489570
0 DMSP 5D-2 F11 DEB
1 28302U 91082P   13287.56364833  .00001119  00000-0  59301-3 0  6613
2 28302 098.8215 278.3095 0031520 214.4817 261.6050 14.15463778489863
0 DMSP 5D-2 F11 DEB
1 28302U 91082P   13289.95642992  .00001153  00000-0  61034-3 0  6628
2 28302 098.8218 280.6767 0031664 207.5609 214.5536 14.15469730490209
0 DMSP 5D-2 F11 DEB
1 28302U 91082P   13292.85605019  .00001176  00000-0  62173-3 0  6631
2 28302 098.8224 283.5455 0031825 199.2411 230.2079 14.15477096490615
0 DMSP 5D-2 F11 DEB
1 28302U 91082P   13294.96819928  .00001340  00000-0  70518-3 0  6647
2 28302 098.8225 285.6352 0031924 193.1631 193.1996 14.15481378490918
